[{"OBJECT_NAME":"SL-6 R/B(2)","OBJECT_ID":"1986-089D","EPOCH":"2026-02-28T20:55:21.008352","MEAN_MOTION":1.95710069,"ECCENTRICITY":0.6894197,"INCLINATION":63.5659,"RA_OF_ASC_NODE":139.1933,"ARG_OF_PERICENTER":253.0175,"MEAN_ANOMALY":25.9453,"EPHEMERIS_TYPE":0,"CLASSIFICATION_TYPE":"U","NORAD_CAT_ID":17081,"ELEMENT_SET_NO":999,"REV_AT_EPOCH":28068,"BSTAR":0,"MEAN_MOTION_DOT":5.49e-6,"MEAN_MOTION_DDOT":0},{"OBJECT_NAME":"SL-12 R/B(2)","OBJECT_ID":"1986-090D","EPOCH":"2026-03-05T02:31:14.547072","MEAN_MOTION":1.00310016,"ECCENTRICITY":0.00076063,"INCLINATION":10.5018,"RA_OF_ASC_NODE":323.3923,"ARG_OF_PERICENTER":183.8062,"MEAN_ANOMALY":176.166,"EPHEMERIS_TYPE":0,"CLASSIFICATION_TYPE":"U","NORAD_CAT_ID":17125,"ELEMENT_SET_NO":999,"REV_AT_EPOCH":14382,"BSTAR":0,"MEAN_MOTION_DOT":-3.76e-6,"MEAN_MOTION_DDOT":0},{"OBJECT_NAME":"FLTSATCOM 7 (USA 20)","OBJECT_ID":"1986-096A","EPOCH":"2026-03-04T20:06:38.810880","MEAN_MOTION":0.98926275,"ECCENTRICITY":0.00435778,"INCLINATION":12.785,"RA_OF_ASC_NODE":340.7382,"ARG_OF_PERICENTER":327.9827,"MEAN_ANOMALY":210.5349,"EPHEMERIS_TYPE":0,"CLASSIFICATION_TYPE":"U","NORAD_CAT_ID":17181,"ELEMENT_SET_NO":999,"REV_AT_EPOCH":15093,"BSTAR":0,"MEAN_MOTION_DOT":3.9e-7,"MEAN_MOTION_DDOT":0},{"OBJECT_NAME":"MOLNIYA 3-31","OBJECT_ID":"1987-008A","EPOCH":"2026-03-04T15:38:38.898240","MEAN_MOTION":2.00705277,"ECCENTRICITY":0.73796198,"INCLINATION":62.2042,"RA_OF_ASC_NODE":288.941,"ARG_OF_PERICENTER":258.8565,"MEAN_ANOMALY":17.8751,"EPHEMERIS_TYPE":0,"CLASSIFICATION_TYPE":"U","NORAD_CAT_ID":17328,"ELEMENT_SET_NO":999,"REV_AT_EPOCH":28307,"BSTAR":-0.00093083215,"MEAN_MOTION_DOT":-3.22e-6,"MEAN_MOTION_DDOT":0},{"OBJECT_NAME":"SL-6 R/B(2)","OBJECT_ID":"1987-008D","EPOCH":"2026-03-03T22:02:04.704864","MEAN_MOTION":1.9708028,"ECCENTRICITY":0.73627394,"INCLINATION":63.499,"RA_OF_ASC_NODE":50.4723,"ARG_OF_PERICENTER":251.0511,"MEAN_ANOMALY":21.9255,"EPHEMERIS_TYPE":0,"CLASSIFICATION_TYPE":"U","NORAD_CAT_ID":17333,"ELEMENT_SET_NO":999,"REV_AT_EPOCH":28154,"BSTAR":-0.00020181073,"MEAN_MOTION_DOT":-3.51e-6,"MEAN_MOTION_DDOT":0},{"OBJECT_NAME":"USA 21","OBJECT_ID":"1987-015A","EPOCH":"2026-02-14T03:28:01.041600","MEAN_MOTION":2.01482512,"ECCENTRICITY":0.72756027,"INCLINATION":62.9671,"RA_OF_ASC_NODE":273.1681,"ARG_OF_PERICENTER":278.0632,"MEAN_ANOMALY":12.4511,"EPHEMERIS_TYPE":0,"CLASSIFICATION_TYPE":"U","NORAD_CAT_ID":17506,"ELEMENT_SET_NO":999,"REV_AT_EPOCH":4276,"BSTAR":-0.0021159353,"MEAN_MOTION_DOT":-7.78e-6,"MEAN_MOTION_DDOT":0},{"OBJECT_NAME":"TITAN 34B R/B","OBJECT_ID":"1987-015B","EPOCH":"2026-02-27T05:27:02.164896","MEAN_MOTION":2.05006213,"ECCENTRICITY":0.7132827,"INCLINATION":63.0343,"RA_OF_ASC_NODE":126.8027,"ARG_OF_PERICENTER":265.3553,"MEAN_ANOMALY":17.5818,"EPHEMERIS_TYPE":0,"CLASSIFICATION_TYPE":"U","NORAD_CAT_ID":17507,"ELEMENT_SET_NO":999,"REV_AT_EPOCH":5025,"BSTAR":0,"MEAN_MOTION_DOT":-9.09e-6,"MEAN_MOTION_DDOT":0},{"OBJECT_NAME":"GOES 7","OBJECT_ID":"1987-022A","EPOCH":"2026-03-05T03:32:38.692320","MEAN_MOTION":0.99894951,"ECCENTRICITY":0.00039576,"INCLINATION":13.0201,"RA_OF_ASC_NODE":338.3692,"ARG_OF_PERICENTER":14.7932,"MEAN_ANOMALY":88.6766,"EPHEMERIS_TYPE":0,"CLASSIFICATION_TYPE":"U","NORAD_CAT_ID":17561,"ELEMENT_SET_NO":999,"REV_AT_EPOCH":12592,"BSTAR":0,"MEAN_MOTION_DOT":7.8e-7,"MEAN_MOTION_DDOT":0},{"OBJECT_NAME":"SL-12 R/B(2)","OBJECT_ID":"1987-028D","EPOCH":"2026-03-03T19:23:22.724160","MEAN_MOTION":0.99870012,"ECCENTRICITY":0.00250699,"INCLINATION":11.3048,"RA_OF_ASC_NODE":321.5494,"ARG_OF_PERICENTER":111.7452,"MEAN_ANOMALY":56.4881,"EPHEMERIS_TYPE":0,"CLASSIFICATION_TYPE":"U","NORAD_CAT_ID":17705,"ELEMENT_SET_NO":999,"REV_AT_EPOCH":14341,"BSTAR":0,"MEAN_MOTION_DOT":1.07e-6,"MEAN_MOTION_DDOT":0},{"OBJECT_NAME":"AGILA 1 (PALAPA B2P)","OBJECT_ID":"1987-029A","EPOCH":"2026-03-04T17:22:38.756352","MEAN_MOTION":0.99914224,"ECCENTRICITY":0.0002983,"INCLINATION":14.4128,"RA_OF_ASC_NODE":348.9675,"ARG_OF_PERICENTER":6.7389,"MEAN_ANOMALY":191.7577,"EPHEMERIS_TYPE":0,"CLASSIFICATION_TYPE":"U","NORAD_CAT_ID":17706,"ELEMENT_SET_NO":999,"REV_AT_EPOCH":4148,"BSTAR":0,"MEAN_MOTION_DOT":-3.72e-6,"MEAN_MOTION_DDOT":0},{"OBJECT_NAME":"SL-12 R/B(2)","OBJECT_ID":"1976-092F","EPOCH":"2026-03-05T00:10:04.973664","MEAN_MOTION":1.00225765,"ECCENTRICITY":0.00149219,"INCLINATION":3.7309,"RA_OF_ASC_NODE":271.675,"ARG_OF_PERICENTER":193.0721,"MEAN_ANOMALY":144.9774,"EPHEMERIS_TYPE":0,"CLASSIFICATION_TYPE":"U","NORAD_CAT_ID":17872,"ELEMENT_SET_NO":999,"REV_AT_EPOCH":11787,"BSTAR":0,"MEAN_MOTION_DOT":-1.81e-6,"MEAN_MOTION_DDOT":0},{"OBJECT_NAME":"SL-12 R/B(2)","OBJECT_ID":"1979-035E","EPOCH":"2026-03-05T05:38:28.363200","MEAN_MOTION":1.00144325,"ECCENTRICITY":0.00255068,"INCLINATION":5.4812,"RA_OF_ASC_NODE":283.1227,"ARG_OF_PERICENTER":252.1684,"MEAN_ANOMALY":114.3422,"EPHEMERIS_TYPE":0,"CLASSIFICATION_TYPE":"U","NORAD_CAT_ID":17873,"ELEMENT_SET_NO":999,"REV_AT_EPOCH":18413,"BSTAR":0,"MEAN_MOTION_DOT":1.35e-6,"MEAN_MOTION_DDOT":0},{"OBJECT_NAME":"SL-12 R/B(2)","OBJECT_ID":"1984-016F","EPOCH":"2026-03-03T19:27:22.340736","MEAN_MOTION":1.00293375,"ECCENTRICITY":0.0034009,"INCLINATION":8.7765,"RA_OF_ASC_NODE":311.5619,"ARG_OF_PERICENTER":228.3334,"MEAN_ANOMALY":325.7091,"EPHEMERIS_TYPE":0,"CLASSIFICATION_TYPE":"U","NORAD_CAT_ID":17874,"ELEMENT_SET_NO":999,"REV_AT_EPOCH":12179,"BSTAR":0,"MEAN_MOTION_DOT":7.3e-7,"MEAN_MOTION_DDOT":0},{"OBJECT_NAME":"SL-12 R/B(2)","OBJECT_ID":"1979-087C","EPOCH":"2026-03-05T01:43:05.929824","MEAN_MOTION":1.00482981,"ECCENTRICITY":0.00471705,"INCLINATION":5.5963,"RA_OF_ASC_NODE":284.4731,"ARG_OF_PERICENTER":356.9,"MEAN_ANOMALY":204.843,"EPHEMERIS_TYPE":0,"CLASSIFICATION_TYPE":"U","NORAD_CAT_ID":17939,"ELEMENT_SET_NO":999,"REV_AT_EPOCH":4639,"BSTAR":0,"MEAN_MOTION_DOT":-3.0e-6,"MEAN_MOTION_DDOT":0},{"OBJECT_NAME":"COSMOS 1888","OBJECT_ID":"1987-084A","EPOCH":"2026-03-05T03:57:02.734272","MEAN_MOTION":1.00172654,"ECCENTRICITY":0.00025176,"INCLINATION":10.943,"RA_OF_ASC_NODE":326.7417,"ARG_OF_PERICENTER":299.0202,"MEAN_ANOMALY":63.2058,"EPHEMERIS_TYPE":0,"CLASSIFICATION_TYPE":"U","NORAD_CAT_ID":18384,"ELEMENT_SET_NO":999,"REV_AT_EPOCH":14065,"BSTAR":0,"MEAN_MOTION_DOT":-3.47e-6,"MEAN_MOTION_DDOT":0},{"OBJECT_NAME":"SL-12 R/B(2)","OBJECT_ID":"1987-084D","EPOCH":"2026-03-04T10:13:38.563392","MEAN_MOTION":1.00051954,"ECCENTRICITY":0.0029048,"INCLINATION":11.0961,"RA_OF_ASC_NODE":327.3473,"ARG_OF_PERICENTER":250.7551,"MEAN_ANOMALY":293.6955,"EPHEMERIS_TYPE":0,"CLASSIFICATION_TYPE":"U","NORAD_CAT_ID":18387,"ELEMENT_SET_NO":999,"REV_AT_EPOCH":14772,"BSTAR":0,"MEAN_MOTION_DOT":7.6e-7,"MEAN_MOTION_DDOT":0},{"OBJECT_NAME":"COSMOS 1894","OBJECT_ID":"1987-091A","EPOCH":"2026-03-05T02:29:38.591232","MEAN_MOTION":1.00265202,"ECCENTRICITY":0.00053755,"INCLINATION":10.9023,"RA_OF_ASC_NODE":326.2113,"ARG_OF_PERICENTER":8.3327,"MEAN_ANOMALY":204.876,"EPHEMERIS_TYPE":0,"CLASSIFICATION_TYPE":"U","NORAD_CAT_ID":18443,"ELEMENT_SET_NO":999,"REV_AT_EPOCH":11977,"BSTAR":0,"MEAN_MOTION_DOT":-1.85e-6,"MEAN_MOTION_DDOT":0}]
