SL-6 R/B(2)             
1 17081U 86089D   26059.87177093  .00000549  00000+0  00000+0 0  9998
2 17081  63.5659 139.1933 6894197 253.0175  25.9453  1.95710069280689
SL-12 R/B(2)            
1 17125U 86090D   26064.10502948 -.00000376  00000+0  00000+0 0  9991
2 17125  10.5018 323.3923 0007606 183.8062 176.1660  1.00310016143822
FLTSATCOM 7 (USA 20)    
1 17181U 86096A   26063.83794920  .00000039  00000+0  00000+0 0  9996
2 17181  12.7850 340.7382 0043577 327.9827 210.5349  0.98926275150934
MOLNIYA 3-31            
1 17328U 87008A   26063.65183910 -.00000322  00000+0 -93083-3 0  9998
2 17328  62.2042 288.9410 7379619 258.8565  17.8751  2.00705277283071
SL-6 R/B(2)             
1 17333U 87008D   26062.91811001 -.00000351  00000+0 -20181-3 0  9992
2 17333  63.4990  50.4723 7362739 251.0511  21.9255  1.97080280281542
USA 21                  
1 17506U 87015A   26045.14445650 -.00000778  00000+0 -21159-2 0  9999
2 17506  62.9671 273.1681 7275602 278.0632  12.4511  2.01482512 42765
TITAN 34B R/B           
1 17507U 87015B   26058.22710839 -.00000909  00000+0  00000+0 0  9991
2 17507  63.0343 126.8027 7132827 265.3553  17.5818  2.05006213 50257
GOES 7                  
1 17561U 87022A   26064.14767005  .00000078  00000+0  00000+0 0  9990
2 17561  13.0201 338.3692 0003957  14.7932  88.6766  0.99894951125927
SL-12 R/B(2)            
1 17705U 87028D   26062.80790190  .00000107  00000+0  00000+0 0  9991
2 17705  11.3048 321.5494 0025069 111.7452  56.4881  0.99870012143411
AGILA 1 (PALAPA B2P)    
1 17706U 87029A   26063.72405968 -.00000372  00000+0  00000+0 0  9996
2 17706  14.4128 348.9675 0002983   6.7389 191.7577  0.99914224 41484
SL-12 R/B(2)            
1 17872U 76092F   26064.00700201 -.00000181  00000+0  00000+0 0  9996
2 17872   3.7309 271.6750 0014921 193.0721 144.9774  1.00225765117875
SL-12 R/B(2)            
1 17873U 79035E   26064.23505050  .00000135  00000+0  00000+0 0  9995
2 17873   5.4812 283.1227 0025506 252.1684 114.3422  1.00144325184133
SL-12 R/B(2)            
1 17874U 84016F   26062.81067524  .00000073  00000+0  00000+0 0  9993
2 17874   8.7765 311.5619 0034009 228.3334 325.7091  1.00293375121796
SL-12 R/B(2)            
1 17939U 79087C   26064.07159641 -.00000300  00000+0  00000+0 0  9993
2 17939   5.5963 284.4731 0047170 356.9000 204.8430  1.00482981 46396
COSMOS 1888             
1 18384U 87084A   26064.16461498 -.00000347  00000+0  00000+0 0  9991
2 18384  10.9430 326.7417 0002517 299.0202  63.2058  1.00172654140658
SL-12 R/B(2)            
1 18387U 87084D   26063.42614078  .00000076  00000+0  00000+0 0  9994
2 18387  11.0961 327.3473 0029048 250.7551 293.6955  1.00051954147729
COSMOS 1894             
1 18443U 87091A   26064.10391888 -.00000185  00000+0  00000+0 0  9994
2 18443  10.9023 326.2113 0005375   8.3327 204.8760  1.00265202119778
